[{"OBJECT_NAME":"STARLINK-30812","OBJECT_ID":"2023-166U","EPOCH":"2026-03-09T16:41:20.313600","MEAN_MOTION":15.30182889,"ECCENTRICITY":0.00015543,"INCLINATION":53.1599,"RA_OF_ASC_NODE":219.3426,"ARG_OF_PERICENTER":81.6762,"MEAN_ANOMALY":278.4415,"EPHEMERIS_TYPE":0,"CLASSIFICATION_TYPE":"U","NORAD_CAT_ID":58168,"ELEMENT_SET_NO":999,"REV_AT_EPOCH":13303,"BSTAR":5.1682527e-5,"MEAN_MOTION_DOT":1.171e-5,"MEAN_MOTION_DDOT":0},{"OBJECT_NAME":"CZ-6A DEB","OBJECT_ID":"2024-140ADS","EPOCH":"2026-03-09T14:05:09.302208","MEAN_MOTION":15.17885306,"ECCENTRICITY":0.0073653,"INCLINATION":89.0442,"RA_OF_ASC_NODE":281.8925,"ARG_OF_PERICENTER":121.24,"MEAN_ANOMALY":239.6089,"EPHEMERIS_TYPE":0,"CLASSIFICATION_TYPE":"U","NORAD_CAT_ID":64628,"ELEMENT_SET_NO":999,"REV_AT_EPOCH":8034,"BSTAR":0.0029018,"MEAN_MOTION_DOT":0.00063537,"MEAN_MOTION_DDOT":0}]
